CCSDS_OMM_VERS = 2.0
CREATION_DATE  = 
ORIGINATOR     = 

OBJECT_NAME    = UNKNOWN
OBJECT_ID      = 
CENTER_NAME    = EARTH
REF_FRAME      = TEME
TIME_SYSTEM    = UTC
MEAN_ELEMENT_THEORY = SGP/SGP4

EPOCH          = 2026-03-03T06:52:21.358848
MEAN_MOTION    = 14.33183752
ECCENTRICITY   = .0027778
INCLINATION    = 98.9594
RA_OF_ASC_NODE = 185.0551
ARG_OF_PERICENTER = 170.4535
MEAN_ANOMALY   = 189.7181

EPHEMERIS_TYPE = 0
CLASSIFICATION_TYPE = U
NORAD_CAT_ID   = 82893
ELEMENT_SET_NO = 999
REV_AT_EPOCH   = 43550
BSTAR          = .37568E-2
MEAN_MOTION_DOT = .10332E-3
MEAN_MOTION_DDOT = 0

CCSDS_OMM_VERS = 2.0
CREATION_DATE  = 
ORIGINATOR     = 

OBJECT_NAME    = UNKNOWN
OBJECT_ID      = 
CENTER_NAME    = EARTH
REF_FRAME      = TEME
TIME_SYSTEM    = UTC
MEAN_ELEMENT_THEORY = SGP/SGP4

EPOCH          = 2026-03-02T04:17:37.896576
MEAN_MOTION    = 13.28374155
ECCENTRICITY   = .0771414
INCLINATION    = 65.8389
RA_OF_ASC_NODE = 351.1030
ARG_OF_PERICENTER = 232.8891
MEAN_ANOMALY   = 119.9245

EPHEMERIS_TYPE = 0
CLASSIFICATION_TYPE = U
NORAD_CAT_ID   = 82912
ELEMENT_SET_NO = 999
REV_AT_EPOCH   = 58987
BSTAR          = .93941E-3
MEAN_MOTION_DOT = .2228E-4
MEAN_MOTION_DDOT = 0

CCSDS_OMM_VERS = 2.0
CREATION_DATE  = 
ORIGINATOR     = 

OBJECT_NAME    = UNKNOWN
OBJECT_ID      = 
CENTER_NAME    = EARTH
REF_FRAME      = TEME
TIME_SYSTEM    = UTC
MEAN_ELEMENT_THEORY = SGP/SGP4

EPOCH          = 2026-03-02T21:43:12.648864
MEAN_MOTION    = 13.25842787
ECCENTRICITY   = .0428039
INCLINATION    = 99.8213
RA_OF_ASC_NODE = 217.2970
ARG_OF_PERICENTER = 178.4642
MEAN_ANOMALY   = 181.7907

EPHEMERIS_TYPE = 0
CLASSIFICATION_TYPE = U
NORAD_CAT_ID   = 82961
ELEMENT_SET_NO = 999
REV_AT_EPOCH   = 56632
BSTAR          = .24892E-1
MEAN_MOTION_DOT = .17895E-3
MEAN_MOTION_DDOT = 0

CCSDS_OMM_VERS = 2.0
CREATION_DATE  = 
ORIGINATOR     = 

OBJECT_NAME    = UNKNOWN
OBJECT_ID      = 
CENTER_NAME    = EARTH
REF_FRAME      = TEME
TIME_SYSTEM    = UTC
MEAN_ELEMENT_THEORY = SGP/SGP4

EPOCH          = 2026-02-28T01:42:16.769952
MEAN_MOTION    = 13.60198576
ECCENTRICITY   = .0003131
INCLINATION    = 100.1087
RA_OF_ASC_NODE = 146.0991
ARG_OF_PERICENTER = 186.2892
MEAN_ANOMALY   = 173.8208

EPHEMERIS_TYPE = 0
CLASSIFICATION_TYPE = U
NORAD_CAT_ID   = 82965
ELEMENT_SET_NO = 999
REV_AT_EPOCH   = 53496
BSTAR          = .13913E-2
MEAN_MOTION_DOT = .994E-5
MEAN_MOTION_DDOT = 0

CCSDS_OMM_VERS = 2.0
CREATION_DATE  = 
ORIGINATOR     = 

OBJECT_NAME    = UNKNOWN
OBJECT_ID      = 
CENTER_NAME    = EARTH
REF_FRAME      = TEME
TIME_SYSTEM    = UTC
MEAN_ELEMENT_THEORY = SGP/SGP4

EPOCH          = 2026-03-03T12:57:29.112192
MEAN_MOTION    = 0.99115449
ECCENTRICITY   = .0122199
INCLINATION    = 5.9857
RA_OF_ASC_NODE = 289.9080
ARG_OF_PERICENTER = 253.6693
MEAN_ANOMALY   = 298.3680

EPHEMERIS_TYPE = 0
CLASSIFICATION_TYPE = U
NORAD_CAT_ID   = 83903
ELEMENT_SET_NO = 999
REV_AT_EPOCH   = 4446
BSTAR          = 0
MEAN_MOTION_DOT = -.394E-5
MEAN_MOTION_DDOT = 0

CCSDS_OMM_VERS = 2.0
CREATION_DATE  = 
ORIGINATOR     = 

OBJECT_NAME    = UNKNOWN
OBJECT_ID      = 
CENTER_NAME    = EARTH
REF_FRAME      = TEME
TIME_SYSTEM    = UTC
MEAN_ELEMENT_THEORY = SGP/SGP4

EPOCH          = 2026-03-02T21:02:57.564960
MEAN_MOTION    = 1.02662006
ECCENTRICITY   = .0224494
INCLINATION    = 5.6032
RA_OF_ASC_NODE = 296.9861
ARG_OF_PERICENTER = 275.7624
MEAN_ANOMALY   = 284.5822

EPHEMERIS_TYPE = 0
CLASSIFICATION_TYPE = U
NORAD_CAT_ID   = 83934
ELEMENT_SET_NO = 999
REV_AT_EPOCH   = 4610
BSTAR          = 0
MEAN_MOTION_DOT = -.63E-6
MEAN_MOTION_DDOT = 0

CCSDS_OMM_VERS = 2.0
CREATION_DATE  = 
ORIGINATOR     = 

OBJECT_NAME    = UNKNOWN
OBJECT_ID      = 
CENTER_NAME    = EARTH
REF_FRAME      = TEME
TIME_SYSTEM    = UTC
MEAN_ELEMENT_THEORY = SGP/SGP4

EPOCH          = 2026-03-03T13:32:48.372864
MEAN_MOTION    = 2.16232293
ECCENTRICITY   = .6164362
INCLINATION    = 22.3801
RA_OF_ASC_NODE = 160.9968
ARG_OF_PERICENTER = 89.0442
MEAN_ANOMALY   = 336.2178

EPHEMERIS_TYPE = 0
CLASSIFICATION_TYPE = U
NORAD_CAT_ID   = 84006
ELEMENT_SET_NO = 999
REV_AT_EPOCH   = 8597
BSTAR          = 0
MEAN_MOTION_DOT = .5E-7
MEAN_MOTION_DDOT = 0

CCSDS_OMM_VERS = 2.0
CREATION_DATE  = 
ORIGINATOR     = 

OBJECT_NAME    = UNKNOWN
OBJECT_ID      = 
CENTER_NAME    = EARTH
REF_FRAME      = TEME
TIME_SYSTEM    = UTC
MEAN_ELEMENT_THEORY = SGP/SGP4

EPOCH          = 2026-03-03T08:35:36.434976
MEAN_MOTION    = 8.03354809
ECCENTRICITY   = .3516471
INCLINATION    = 64.8752
RA_OF_ASC_NODE = 184.3796
ARG_OF_PERICENTER = 9.3248
MEAN_ANOMALY   = 355.8429

EPHEMERIS_TYPE = 0
CLASSIFICATION_TYPE = U
NORAD_CAT_ID   = 84188
ELEMENT_SET_NO = 999
REV_AT_EPOCH   = 4759
BSTAR          = .92896E-1
MEAN_MOTION_DOT = .182396E-2
MEAN_MOTION_DDOT = 0

CCSDS_OMM_VERS = 2.0
CREATION_DATE  = 
ORIGINATOR     = 

OBJECT_NAME    = UNKNOWN
OBJECT_ID      = 
CENTER_NAME    = EARTH
REF_FRAME      = TEME
TIME_SYSTEM    = UTC
MEAN_ELEMENT_THEORY = SGP/SGP4

EPOCH          = 2026-03-03T01:58:39.117216
MEAN_MOTION    = 3.21168658
ECCENTRICITY   = .6536691
INCLINATION    = 20.3241
RA_OF_ASC_NODE = 227.6525
ARG_OF_PERICENTER = 148.3914
MEAN_ANOMALY   = 277.0053

EPHEMERIS_TYPE = 0
CLASSIFICATION_TYPE = U
NORAD_CAT_ID   = 84232
ELEMENT_SET_NO = 999
REV_AT_EPOCH   = 10725
BSTAR          = .31272E-1
MEAN_MOTION_DOT = .42659E-3
MEAN_MOTION_DDOT = 0

CCSDS_OMM_VERS = 2.0
CREATION_DATE  = 
ORIGINATOR     = 

OBJECT_NAME    = UNKNOWN
OBJECT_ID      = 
CENTER_NAME    = EARTH
REF_FRAME      = TEME
TIME_SYSTEM    = UTC
MEAN_ELEMENT_THEORY = SGP/SGP4

EPOCH          = 2026-03-02T02:12:07.356384
MEAN_MOTION    = 2.62653933
ECCENTRICITY   = .6890498
INCLINATION    = 9.3107
RA_OF_ASC_NODE = 299.7920
ARG_OF_PERICENTER = 164.3464
MEAN_ANOMALY   = 238.4347

EPHEMERIS_TYPE = 0
CLASSIFICATION_TYPE = U
NORAD_CAT_ID   = 84236
ELEMENT_SET_NO = 999
REV_AT_EPOCH   = 11606
BSTAR          = .59819E-2
MEAN_MOTION_DOT = .94E-5
MEAN_MOTION_DDOT = 0

CCSDS_OMM_VERS = 2.0
CREATION_DATE  = 
ORIGINATOR     = 

OBJECT_NAME    = UNKNOWN
OBJECT_ID      = 
CENTER_NAME    = EARTH
REF_FRAME      = TEME
TIME_SYSTEM    = UTC
MEAN_ELEMENT_THEORY = SGP/SGP4

EPOCH          = 2026-03-03T01:01:21.320832
MEAN_MOTION    = 6.22212735
ECCENTRICITY   = .4554391
INCLINATION    = 23.8342
RA_OF_ASC_NODE = 49.0640
ARG_OF_PERICENTER = 73.5287
MEAN_ANOMALY   = 330.6736

EPHEMERIS_TYPE = 0
CLASSIFICATION_TYPE = U
NORAD_CAT_ID   = 84292
ELEMENT_SET_NO = 999
REV_AT_EPOCH   = 23306
BSTAR          = .28199E-2
MEAN_MOTION_DOT = .4633E-4
MEAN_MOTION_DDOT = 0

CCSDS_OMM_VERS = 2.0
CREATION_DATE  = 
ORIGINATOR     = 

OBJECT_NAME    = UNKNOWN
OBJECT_ID      = 
CENTER_NAME    = EARTH
REF_FRAME      = TEME
TIME_SYSTEM    = UTC
MEAN_ELEMENT_THEORY = SGP/SGP4

EPOCH          = 2026-02-27T05:14:06.033696
MEAN_MOTION    = 2.05796928
ECCENTRICITY   = .7208492
INCLINATION    = 19.4512
RA_OF_ASC_NODE = 300.0109
ARG_OF_PERICENTER = 102.8288
MEAN_ANOMALY   = 339.5385

EPHEMERIS_TYPE = 0
CLASSIFICATION_TYPE = U
NORAD_CAT_ID   = 84407
ELEMENT_SET_NO = 999
REV_AT_EPOCH   = 7744
BSTAR          = .15745E-1
MEAN_MOTION_DOT = -.62E-6
MEAN_MOTION_DDOT = 0

CCSDS_OMM_VERS = 2.0
CREATION_DATE  = 
ORIGINATOR     = 

OBJECT_NAME    = UNKNOWN
OBJECT_ID      = 
CENTER_NAME    = EARTH
REF_FRAME      = TEME
TIME_SYSTEM    = UTC
MEAN_ELEMENT_THEORY = SGP/SGP4

EPOCH          = 2026-03-03T08:05:14.544096
MEAN_MOTION    = 2.19867114
ECCENTRICITY   = .7115404
INCLINATION    = 18.0132
RA_OF_ASC_NODE = 131.5702
ARG_OF_PERICENTER = 71.7416
MEAN_ANOMALY   = 349.0642

EPHEMERIS_TYPE = 0
CLASSIFICATION_TYPE = U
NORAD_CAT_ID   = 84575
ELEMENT_SET_NO = 999
REV_AT_EPOCH   = 6723
BSTAR          = .51095E-2
MEAN_MOTION_DOT = -.72E-6
MEAN_MOTION_DDOT = 0

CCSDS_OMM_VERS = 2.0
CREATION_DATE  = 
ORIGINATOR     = 

OBJECT_NAME    = UNKNOWN
OBJECT_ID      = 
CENTER_NAME    = EARTH
REF_FRAME      = TEME
TIME_SYSTEM    = UTC
MEAN_ELEMENT_THEORY = SGP/SGP4

EPOCH          = 2026-03-03T11:21:56.862720
MEAN_MOTION    = 3.00128761
ECCENTRICITY   = .6576838
INCLINATION    = 2.0473
RA_OF_ASC_NODE = 195.2860
ARG_OF_PERICENTER = 147.8661
MEAN_ANOMALY   = 47.5732

EPHEMERIS_TYPE = 0
CLASSIFICATION_TYPE = U
NORAD_CAT_ID   = 84932
ELEMENT_SET_NO = 999
REV_AT_EPOCH   = 13420
BSTAR          = .83022E-2
MEAN_MOTION_DOT = .1014E-4
MEAN_MOTION_DDOT = 0

CCSDS_OMM_VERS = 2.0
CREATION_DATE  = 
ORIGINATOR     = 

OBJECT_NAME    = UNKNOWN
OBJECT_ID      = 
CENTER_NAME    = EARTH
REF_FRAME      = TEME
TIME_SYSTEM    = UTC
MEAN_ELEMENT_THEORY = SGP/SGP4

EPOCH          = 2026-03-02T10:06:23.120352
MEAN_MOTION    = 14.41332468
ECCENTRICITY   = .0045628
INCLINATION    = 98.4328
RA_OF_ASC_NODE = 36.3343
ARG_OF_PERICENTER = 283.5862
MEAN_ANOMALY   = 228.5340

EPHEMERIS_TYPE = 0
CLASSIFICATION_TYPE = U
NORAD_CAT_ID   = 85004
ELEMENT_SET_NO = 999
REV_AT_EPOCH   = 64237
BSTAR          = .46123E-3
MEAN_MOTION_DOT = .1467E-4
MEAN_MOTION_DDOT = 0

CCSDS_OMM_VERS = 2.0
CREATION_DATE  = 
ORIGINATOR     = 

OBJECT_NAME    = UNKNOWN
OBJECT_ID      = 
CENTER_NAME    = EARTH
REF_FRAME      = TEME
TIME_SYSTEM    = UTC
MEAN_ELEMENT_THEORY = SGP/SGP4

EPOCH          = 2026-02-27T02:23:30.679296
MEAN_MOTION    = 13.75239596
ECCENTRICITY   = .0026672
INCLINATION    = 99.2482
RA_OF_ASC_NODE = 282.6795
ARG_OF_PERICENTER = 51.5718
MEAN_ANOMALY   = 101.6401

EPHEMERIS_TYPE = 0
CLASSIFICATION_TYPE = U
NORAD_CAT_ID   = 85010
ELEMENT_SET_NO = 999
REV_AT_EPOCH   = 61441
BSTAR          = .10809E-2
MEAN_MOTION_DOT = .996E-5
MEAN_MOTION_DDOT = 0

